CUTE-1 (CO-55)          
1 27844U 03031E   26139.93778931  .00000179  00000+0  96399-4 0  9996
2 27844  98.6744 148.8520 0008285 267.2819  92.7412 14.24316405187653
CUBESAT XI-IV (CO-57)   
1 27848U 03031J   26139.49040125  .00000134  00000+0  77858-4 0  9998
2 27848  98.6775 148.1459 0008253 290.1420  69.8871 14.23603827187293
CUBESAT XI-V            
1 28895U 05043F   26139.38868413  .00000744  00000+0  12526-3 0  9999
2 28895  98.2953 294.4126 0012867 299.2337  60.7582 14.72545772 97511
CUTE-1.7+APD II (CO-65) 
1 32785U 08021C   26139.93985152  .00003244  00000+0  20835-3 0  9992
2 32785  97.8271 120.7807 0010582 119.3937 240.8349 15.09153009980937
CANX-2                  
1 32790U 08021H   26139.90793333  .00002061  00000+0  14814-3 0  9999
2 32790  97.8620 119.1448 0011523 133.6732 226.5451 15.05384884980558
SEEDS II (CO-66)        
1 32791U 08021J   26139.92312925  .00013942  00000+0  45792-3 0  9995
2 32791  97.7525 136.4962 0004720  70.7041 289.4710 15.31684611982963
SWISSCUBE               
1 35932U 09051B   26139.70643873  .00000592  00000+0  12685-3 0  9996
2 35932  98.4054  47.0974 0005762 310.7526  49.3174 14.62419385884998
BEESAT-1                
1 35933U 09051C   26139.56423595  .00000506  00000+0  11149-3 0  9997
2 35933  98.3983  46.6478 0004570 330.6866  29.4077 14.61667665885006
ITUPSAT1                
1 35935U 09051E   26139.18753492  .00000454  00000+0  10393-3 0  9991
2 35935  98.4068  45.4878 0006997 339.3599  20.7317 14.60391532884509
TISAT 1                 
1 36799U 10035E   26139.55760674  .00013773  00000+0  46939-3 0  9998
2 36799  98.0707  83.5972 0002919  41.2650 318.8809 15.30510479863324
AEROCUBE 4.5A           
1 38767U 12048K   26139.41851617  .00123628  00000+0  66268-3 0  9992
2 38767  64.6283 130.7793 0018412 216.0663 143.9250 15.79455087368093
STRAND-1                
1 39090U 13009E   26139.71977785  .00000147  00000+0  63848-4 0  9990
2 39090  98.3916 320.6562 0007800 322.9996  37.0652 14.37144504692977
BRITE-AUSTRIA           
1 39091U 13009F   26139.92937830  .00000102  00000+0  49288-4 0  9994
2 39091  98.3988 320.0657 0009501 330.8655  29.2001 14.36529628692992
NEE-01 PEGASO           
1 39151U 13018B   26139.92705427  .00001532  00000+0  15130-3 0  9992
2 39151  98.1188 283.1528 0011372 255.2186 104.7773 14.93502115706483
POPACS 2                
1 39269U 13055E   26139.85326802  .00011315  00000+0  19457-3 0  9997
2 39269  80.9909 176.6126 0418497 284.9360  70.5884 14.90542086658998
POPACS 3                
1 39270U 13055F   26139.59550834  .00012545  00000+0  29806-3 0  9999
2 39270  81.0018 260.1669 0554722 156.9410 205.7769 14.55402350634392
ZACUBE-1 (TSHEPISOSAT)  
1 39417U 13066B   26139.87676982  .00003044  00000+0  23957-3 0  9993
2 39417  97.8123 102.0604 0040994 347.8818  12.1416 15.00948884676487
WNISAT-1                
1 39423U 13066H   26139.93709573  .00000299  00000+0  63737-4 0  9990
2 39423  97.7168 291.1040 0162200 321.2806  37.6857 14.58022663662615
TRITON-1                
1 39427U 13066M   26139.93146792  .00001883  00000+0  23074-3 0  9991
2 39427  97.8270  50.3824 0089454 327.4859  32.0863 14.81573275669905
GOMX-1                  
1 39430U 13066Q   26139.99386057  .00001363  00000+0  21079-3 0  9997
2 39430  97.6495 342.2350 0129034 167.3869 193.0620 14.69335335665773
CUBEBUG-2 (LO-74)       
1 39440U 13066AA  26139.59162167  .00002255  00000+0  21261-3 0  9992
2 39440  97.8895  88.4584 0059291 121.3860 239.3178 14.93514845672723
NEE-02 KRYSAOR          
1 39441U 13066AB  26139.26541490  .00000950  00000+0  10953-3 0  9993
2 39441  97.8886  78.6919 0066597 163.2693 197.0741 14.86495337671904
FUNCUBE-1 (AO-73)       
1 39444U 13066AE  26139.88001221  .00005392  00000+0  33982-3 0  9999
2 39444  97.8266 110.7464 0034852 301.7800  58.0035 15.09086227675399
UWE-3                   
1 39446U 13066AG  26139.87297777  .00002931  00000+0  25518-3 0  9995
2 39446  97.8681  95.7656 0050416  55.1859 305.4090 14.96754231673340
BRITE-CA1 (TORONTO)     
1 40020U 14033L   26139.90850547  .00000408  00000+0  69051-4 0  9992
2 40020  97.9701 269.3647 0078757   8.4972 351.7549 14.72633844638050
DUCHIFAT-1              
1 40021U 14033M   26139.12335227  .00061236  00000+0  78320-3 0  9994
2 40021  98.0491 194.3373 0006206 171.2568 188.8795 15.59011194651211
NANOSATC-BR1            
1 40024U 14033Q   26139.51235895  .00011395  00000+0  38964-3 0  9991
2 40024  98.0737 169.3799 0001653 282.2324  77.8729 15.30457042649592
QB50P1                  
1 40025U 14033R   26139.93778660  .00005360  00000+0  26895-3 0  9995
2 40025  98.0974 149.1137 0007646 333.4297  26.6542 15.17774312648742
QB50P2                  
1 40032U 14033Y   26139.96289768  .00004295  00000+0  23558-3 0  9991
2 40032  98.0754 135.0967 0005649 272.1099  87.9484 15.14755956648397
PERSEUS-M2              
1 40037U 14033AD  26139.96091177  .00001395  00000+0  13154-3 0  9990
2 40037  97.9967  89.9327 0013193  39.4016 320.8161 14.95417893646560
